ONEWEB-0199             
1 48234U 21031AA  25113.70021093  .00000180  00000+0  45209-3 0  9993
2 48234  87.9085  13.1260 0001902  76.7734 283.3608 13.14501267193158
ONEWEB-0203             
1 48235U 21031AB  25114.14741784  .00000036  00000+0  62743-4 0  9992
2 48235  87.9087  13.0397 0001610  73.8081 286.3225 13.14497925193221
ONEWEB-0197             
1 48236U 21031AC  25113.66612194 -.00000191  00000+0 -54883-3 0  9990
2 48236  87.9075  13.1455 0002163  83.2854 276.8521 13.14503101193072
ONEWEB-0194             
1 48237U 21031AD  25113.72083290  .00000077  00000+0  17350-3 0  9996
2 48237  87.9090  13.1311 0001865  71.0424 289.0908 13.14501716193252
ONEWEB-0193             
1 48238U 21031AE  25113.66057320 -.00000128  00000+0 -38080-3 0  9997
2 48238  87.9089  13.1511 0001683  78.6794 281.4524 13.14501974193193
ONEWEB-0191             
1 48239U 21031AF  25114.20449986 -.00000183  00000+0 -52707-3 0  9995
2 48239  87.9099  13.0149 0001654  71.5005 288.6304 13.14502765193123
ONEWEB-0195             
1 48240U 21031AG  25113.72481514  .00000019  00000+0  16291-4 0  9991
2 48240  87.9086  13.1105 0001491  88.7408 271.3893 13.14498929193049
ONEWEB-0201             
1 48241U 21031AH  25113.71303124 -.00000115  00000+0 -34453-3 0  9999
2 48241  87.9108  13.1544 0001991  80.8004 279.3351 13.14504354193274
